ARTEMIS 2 
1 68538U 26069A   26091.94677083  .00000000  00000-0  00000+0 0  9994
2 68538  28.5261   3.4072 1465270  67.9232  24.0215 13.36122280    08